[{"OBJECT_NAME":"STARLINK-3110","OBJECT_ID":"2021-104N","EPOCH":"2026-03-09T16:49:16.649760","MEAN_MOTION":15.08842531,"ECCENTRICITY":0.00010989,"INCLINATION":53.2171,"RA_OF_ASC_NODE":229.0712,"ARG_OF_PERICENTER":94.2526,"MEAN_ANOMALY":265.8592,"EPHEMERIS_TYPE":0,"CLASSIFICATION_TYPE":"U","NORAD_CAT_ID":49420,"ELEMENT_SET_NO":999,"REV_AT_EPOCH":23862,"BSTAR":1.6960553e-5,"MEAN_MOTION_DOT":-1.8e-7,"MEAN_MOTION_DDOT":0},{"OBJECT_NAME":"CZ-4B DEB","OBJECT_ID":"2008-053L","EPOCH":"2026-03-08T19:52:33.417984","MEAN_MOTION":15.09778257,"ECCENTRICITY":0.00077037,"INCLINATION":97.7892,"RA_OF_ASC_NODE":87.441,"ARG_OF_PERICENTER":237.5543,"MEAN_ANOMALY":122.4941,"EPHEMERIS_TYPE":0,"CLASSIFICATION_TYPE":"U","NORAD_CAT_ID":36290,"ELEMENT_SET_NO":999,"REV_AT_EPOCH":71411,"BSTAR":0.00021001,"MEAN_MOTION_DOT":3.326e-5,"MEAN_MOTION_DDOT":0}]
